[{"OBJECT_NAME":"SCS-01 J","OBJECT_ID":"2025-100J","EPOCH":"2026-03-09T22:31:25.904064","MEAN_MOTION":15.31338011,"ECCENTRICITY":0.00063909,"INCLINATION":97.3693,"RA_OF_ASC_NODE":145.4824,"ARG_OF_PERICENTER":272.025,"MEAN_ANOMALY":88.026,"EPHEMERIS_TYPE":0,"CLASSIFICATION_TYPE":"U","NORAD_CAT_ID":63990,"ELEMENT_SET_NO":999,"REV_AT_EPOCH":4563,"BSTAR":0.0011832888,"MEAN_MOTION_DOT":0.00035886,"MEAN_MOTION_DDOT":0},{"OBJECT_NAME":"STARLINK-34880","OBJECT_ID":"2025-189E","EPOCH":"2026-03-09T16:20:53.599488","MEAN_MOTION":15.30191226,"ECCENTRICITY":0.00011111,"INCLINATION":53.1582,"RA_OF_ASC_NODE":206.9181,"ARG_OF_PERICENTER":74.3546,"MEAN_ANOMALY":285.7577,"EPHEMERIS_TYPE":0,"CLASSIFICATION_TYPE":"U","NORAD_CAT_ID":65327,"ELEMENT_SET_NO":999,"REV_AT_EPOCH":3110,"BSTAR":0.00099925706,"MEAN_MOTION_DOT":0.00029345,"MEAN_MOTION_DDOT":0}]
